start=new Date('2023-02-04T00:00:00.000Z').valueOf();
sats=[{"MEAN_MOTION":"15.08847532","MEAN_MOTION_DDOT":"0.0000000000000","CENTER_NAME":"EARTH","PERIAPSIS":"538.578","GP_ID":"224347622","MEAN_ELEMENT_THEORY":"SGP4","SITE":"AFETR","EPOCH":"2023-02-03T15:08:39.291648","COUNTRY_CODE":"US","REV_AT_EPOCH":"3238","LAUNCH_DATE":"2022-07-07","ARG_OF_PERICENTER":"93.0000","OBJECT_ID":"2022-076AF","OBJECT_TYPE":"PAYLOAD","BSTAR":"-0.00001288600000","INCLINATION":"53.2152","ECCENTRICITY":"0.00016540","NORAD_CAT_ID":"53015","TIME_SYSTEM":"UTC","DECAY_DATE":null,"CLASSIFICATION_TYPE":"U","MEAN_ANOMALY":"267.1182","FILE":"3770748","ELEMENT_SET_NO":"999","SEMIMAJOR_AXIS":"6917.857","TLE_LINE2":"2 53015  53.2152 117.1634 0001654  93.0000 267.1182 15.08847532 32381","MEAN_MOTION_DOT":"-0.00000493","RCS_SIZE":"LARGE","PERIOD":"95.437","RA_OF_ASC_NODE":"117.1634","TLE_LINE1":"1 53015U 22076AF  23034.63101032 -.00000493  00000-0 -12886-4 0  9996","EPHEMERIS_TYPE":"0","REF_FRAME":"TEME","APOAPSIS":"540.867","OBJECT_NAME":"STARLINK-4262"},{"TIME_SYSTEM":"UTC","NORAD_CAT_ID":"53016","ECCENTRICITY":"0.00013290","INCLINATION":"53.2138","BSTAR":"-0.00000066850000","OBJECT_TYPE":"PAYLOAD","OBJECT_ID":"2022-076AG","LAUNCH_DATE":"2022-07-07","ARG_OF_PERICENTER":"98.6640","REV_AT_EPOCH":"3234","COUNTRY_CODE":"US","EPOCH":"2023-02-03T09:03:00.280512","GP_ID":"224313869","SITE":"AFETR","MEAN_ELEMENT_THEORY":"SGP4","PERIAPSIS":"538.843","CENTER_NAME":"EARTH","MEAN_MOTION_DDOT":"0.0000000000000","MEAN_MOTION":"15.08834537","APOAPSIS":"540.681","OBJECT_NAME":"STARLINK-4283","REF_FRAME":"TEME","EPHEMERIS_TYPE":"0","TLE_LINE1":"1 53016U 22076AG  23034.37708658 -.00000299  00000-0 -66850-6 0  9991","RA_OF_ASC_NODE":"118.2921","PERIOD":"95.438","RCS_SIZE":"LARGE","MEAN_MOTION_DOT":"-0.00000299","TLE_LINE2":"2 53016  53.2138 118.2921 0001329  98.6640 261.4503 15.08834537 32348","SEMIMAJOR_AXIS":"6917.897","ELEMENT_SET_NO":"999","FILE":"3770323","MEAN_ANOMALY":"261.4503","CLASSIFICATION_TYPE":"U","DECAY_DATE":null},{"RA_OF_ASC_NODE":"118.9549","PERIOD":"95.438","APOAPSIS":"540.661","OBJECT_NAME":"STARLINK-4281","REF_FRAME":"TEME","TLE_LINE1":"1 53017U 22076AH  23034.22989133 -.00000428  00000-0 -88334-5 0  9999","EPHEMERIS_TYPE":"0","MEAN_ANOMALY":"275.7968","CLASSIFICATION_TYPE":"U","DECAY_DATE":null,"MEAN_MOTION_DOT":"-0.00000428","RCS_SIZE":"LARGE","SEMIMAJOR_AXIS":"6917.902","TLE_LINE2":"2 53017  53.2159 118.9549 0001293  84.3171 275.7968 15.08833036 32331","FILE":"3770323","ELEMENT_SET_NO":"999","BSTAR":"-0.00000883340000","INCLINATION":"53.2159","OBJECT_TYPE":"PAYLOAD","OBJECT_ID":"2022-076AH","ARG_OF_PERICENTER":"84.3171","LAUNCH_DATE":"2022-07-07","REV_AT_EPOCH":"3233","TIME_SYSTEM":"UTC","NORAD_CAT_ID":"53017","ECCENTRICITY":"0.00012930","CENTER_NAME":"EARTH","PERIAPSIS":"538.872","MEAN_MOTION_DDOT":"0.0000000000000","MEAN_MOTION":"15.08833036","COUNTRY_CODE":"US","MEAN_ELEMENT_THEORY":"SGP4","GP_ID":"224312617","SITE":"AFETR","EPOCH":"2023-02-03T05:31:02.610912"},{"RA_OF_ASC_NODE":"118.3032","PERIOD":"95.438","OBJECT_NAME":"STARLINK-4279","APOAPSIS":"540.662","REF_FRAME":"TEME","EPHEMERIS_TYPE":"0","TLE_LINE1":"1 53018U 22076AJ  23034.37436340  .00000038  00000-0  20473-4 0  9997","MEAN_ANOMALY":"251.0233","CLASSIFICATION_TYPE":"U","DECAY_DATE":null,"RCS_SIZE":"LARGE","MEAN_MOTION_DOT":"0.00000038","TLE_LINE2":"2 53018  53.2142 118.3032 0001297 109.0900 251.0233 15.08833508 32341","SEMIMAJOR_AXIS":"6917.900","ELEMENT_SET_NO":"999","FILE":"3770323","INCLINATION":"53.2142","BSTAR":"0.00002047300000","OBJECT_ID":"2022-076AJ","OBJECT_TYPE":"PAYLOAD","LAUNCH_DATE":"2022-07-07","ARG_OF_PERICENTER":"109.0900","REV_AT_EPOCH":"3234","TIME_SYSTEM":"UTC","NORAD_CAT_ID":"53018","ECCENTRICITY":"0.00012970","PERIAPSIS":"538.868","CENTER_NAME":"EARTH","MEAN_MOTION_DDOT":"0.0000000000000","MEAN_MOTION":"15.08833508","COUNTRY_CODE":"US","EPOCH":"2023-02-03T08:59:04.997760","GP_ID":"224312867","SITE":"AFETR","MEAN_ELEMENT_THEORY":"SGP4"},{"MEAN_MOTION":"15.08837160","MEAN_MOTION_DDOT":"0.0000000000000","CENTER_NAME":"EARTH","PERIAPSIS":"538.763","GP_ID":"224313119","MEAN_ELEMENT_THEORY":"SGP4","SITE":"AFETR","EPOCH":"2023-02-03T13:17:22.057728","COUNTRY_CODE":"US","REV_AT_EPOCH":"3237","ARG_OF_PERICENTER":"84.4380","LAUNCH_DATE":"2022-07-07","OBJECT_TYPE":"PAYLOAD","OBJECT_ID":"2022-076AK","BSTAR":"0.00001320600000","INCLINATION":"53.2179","ECCENTRICITY":"0.00014330","NORAD_CAT_ID":"53019","TIME_SYSTEM":"UTC","DECAY_DATE":null,"CLASSIFICATION_TYPE":"U","MEAN_ANOMALY":"275.6775","FILE":"3770323","ELEMENT_SET_NO":"999","SEMIMAJOR_AXIS":"6917.889","TLE_LINE2":"2 53019  53.2179 117.5044 0001433  84.4380 275.6775 15.08837160 32370","MEAN_MOTION_DOT":"-0.00000078","RCS_SIZE":"LARGE","PERIOD":"95.438","RA_OF_ASC_NODE":"117.5044","TLE_LINE1":"1 53019U 22076AK  23034.55372752 -.00000078  00000-0  13206-4 0  9995","EPHEMERIS_TYPE":"0","REF_FRAME":"TEME","OBJECT_NAME":"STARLINK-4282","APOAPSIS":"540.745"},{"MEAN_MOTION_DOT":"0.00000563","RCS_SIZE":"LARGE","SEMIMAJOR_AXIS":"6917.871","TLE_LINE2":"2 53020  53.2162 117.1388 0001320 107.8715 252.2421 15.08842967 32389","FILE":"3770748","ELEMENT_SET_NO":"999","MEAN_ANOMALY":"252.2421","CLASSIFICATION_TYPE":"U","DECAY_DATE":null,"APOAPSIS":"540.649","OBJECT_NAME":"STARLINK-4287","REF_FRAME":"TEME","TLE_LINE1":"1 53020U 22076AL  23034.63468325  .00000563  00000-0  53424-4 0  9992","EPHEMERIS_TYPE":"0","RA_OF_ASC_NODE":"117.1388","PERIOD":"95.437","COUNTRY_CODE":"US","MEAN_ELEMENT_THEORY":"SGP4","GP_ID":"224348374","SITE":"AFETR","EPOCH":"2023-02-03T15:13:56.632800","CENTER_NAME":"EARTH","PERIAPSIS":"538.823","MEAN_MOTION_DDOT":"0.0000000000000","MEAN_MOTION":"15.08842967","TIME_SYSTEM":"UTC","NORAD_CAT_ID":"53020","ECCENTRICITY":"0.00013200","BSTAR":"0.00005342400000","INCLINATION":"53.2162","OBJECT_ID":"2022-076AL","OBJECT_TYPE":"PAYLOAD","ARG_OF_PERICENTER":"107.8715","LAUNCH_DATE":"2022-07-07","REV_AT_EPOCH":"3238"},{"TIME_SYSTEM":"UTC","NORAD_CAT_ID":"53021","ECCENTRICITY":"0.00014020","INCLINATION":"53.2196","BSTAR":"0.00005750800000","OBJECT_TYPE":"PAYLOAD","OBJECT_ID":"2022-076AM","LAUNCH_DATE":"2022-07-07","ARG_OF_PERICENTER":"95.8395","REV_AT_EPOCH":"3235","COUNTRY_CODE":"US","EPOCH":"2023-02-03T09:55:59.932704","MEAN_ELEMENT_THEORY":"SGP4","GP_ID":"224312118","SITE":"AFETR","PERIAPSIS":"538.779","CENTER_NAME":"EARTH","MEAN_MOTION_DDOT":"0.0000000000000","MEAN_MOTION":"15.08838930","OBJECT_NAME":"STARLINK-4203","APOAPSIS":"540.719","REF_FRAME":"TEME","EPHEMERIS_TYPE":"0","TLE_LINE1":"1 53021U 22076AM  23034.41388811  .00000627  00000-0  57508-4 0  9998","RA_OF_ASC_NODE":"118.1337","PERIOD":"95.438","RCS_SIZE":"LARGE","MEAN_MOTION_DOT":"0.00000627","TLE_LINE2":"2 53021  53.2196 118.1337 0001402  95.8395 264.2757 15.08838930 32350","SEMIMAJOR_AXIS":"6917.884","ELEMENT_SET_NO":"999","FILE":"3770323","MEAN_ANOMALY":"264.2757","CLASSIFICATION_TYPE":"U","DECAY_DATE":null},{"APOAPSIS":"540.895","OBJECT_NAME":"STARLINK-4216","REF_FRAME":"TEME","TLE_LINE1":"1 53022U 22076AN  23034.55740659 -.00000386  00000-0 -61794-5 0  9993","EPHEMERIS_TYPE":"0","RA_OF_ASC_NODE":"117.4885","PERIOD":"95.438","MEAN_MOTION_DOT":"-0.00000386","RCS_SIZE":"LARGE","SEMIMAJOR_AXIS":"6917.889","TLE_LINE2":"2 53022  53.2172 117.4885 0001649  75.1294 284.9881 15.08837028 32373","FILE":"3770323","ELEMENT_SET_NO":"999","MEAN_ANOMALY":"284.9881","CLASSIFICATION_TYPE":"U","DECAY_DATE":null,"TIME_SYSTEM":"UTC","NORAD_CAT_ID":"53022","ECCENTRICITY":"0.00016490","BSTAR":"-0.00000617940000","INCLINATION":"53.2172","OBJECT_TYPE":"PAYLOAD","OBJECT_ID":"2022-076AN","LAUNCH_DATE":"2022-07-07","ARG_OF_PERICENTER":"75.1294","REV_AT_EPOCH":"3237","COUNTRY_CODE":"US","SITE":"AFETR","GP_ID":"224312368","MEAN_ELEMENT_THEORY":"SGP4","EPOCH":"2023-02-03T13:22:39.929376","CENTER_NAME":"EARTH","PERIAPSIS":"538.614","MEAN_MOTION_DDOT":"0.0000000000000","MEAN_MOTION":"15.08837028"},{"OBJECT_NAME":"STARLINK-4284","APOAPSIS":"540.152","EPHEMERIS_TYPE":"0","TLE_LINE1":"1 53023U 22076AP  23034.40649928 -.00031724  00000-0 -19768-2 0  9996","REF_FRAME":"TEME","RA_OF_ASC_NODE":"118.1476","PERIOD":"95.429","TLE_LINE2":"2 53023  53.2187 118.1476 0001174 101.9285 258.1839 15.08972738 32357","SEMIMAJOR_AXIS":"6917.475","RCS_SIZE":"LARGE","MEAN_MOTION_DOT":"-0.00031724","ELEMENT_SET_NO":"999","FILE":"3770323","CLASSIFICATION_TYPE":"U","MEAN_ANOMALY":"258.1839","DECAY_DATE":null,"NORAD_CAT_ID":"53023","TIME_SYSTEM":"UTC","ECCENTRICITY":"0.00011740","OBJECT_TYPE":"PAYLOAD","OBJECT_ID":"2022-076AP","INCLINATION":"53.2187","BSTAR":"-0.00197680000000","REV_AT_EPOCH":"3235","ARG_OF_PERICENTER":"101.9285","LAUNCH_DATE":"2022-07-07","COUNTRY_CODE":"US","EPOCH":"2023-02-03T09:45:21.537792","SITE":"AFETR","GP_ID":"224313619","MEAN_ELEMENT_THEORY":"SGP4","PERIAPSIS":"538.528","CENTER_NAME":"EARTH","MEAN_MOTION":"15.08972738","MEAN_MOTION_DDOT":"0.0000000000000"},{"OBJECT_NAME":"STARLINK-4289","APOAPSIS":"540.736","EPHEMERIS_TYPE":"0","TLE_LINE1":"1 53024U 22076AQ  23034.41020882  .00000060  00000-0  21870-4 0  9996","REF_FRAME":"TEME","RA_OF_ASC_NODE":"118.1393","PERIOD":"95.438","TLE_LINE2":"2 53024  53.2206 118.1393 0001427  94.0295 266.0860 15.08839012 32823","SEMIMAJOR_AXIS":"6917.883","RCS_SIZE":"LARGE","MEAN_MOTION_DOT":"0.00000060","ELEMENT_SET_NO":"999","FILE":"3770445","CLASSIFICATION_TYPE":"U","MEAN_ANOMALY":"266.0860","DECAY_DATE":null,"NORAD_CAT_ID":"53024","TIME_SYSTEM":"UTC","ECCENTRICITY":"0.00014270","OBJECT_ID":"2022-076AQ","OBJECT_TYPE":"PAYLOAD","INCLINATION":"53.2206","BSTAR":"0.00002187000000","REV_AT_EPOCH":"3282","ARG_OF_PERICENTER":"94.0295","LAUNCH_DATE":"2022-07-07","COUNTRY_CODE":"US","EPOCH":"2023-02-03T09:50:42.042048","SITE":"AFETR","GP_ID":"224317486","MEAN_ELEMENT_THEORY":"SGP4","PERIAPSIS":"538.761","CENTER_NAME":"EARTH","MEAN_MOTION":"15.08839012","MEAN_MOTION_DDOT":"0.0000000000000"}];
